#cP2024  3  5  0  0  0.00000000      96 ORBIT IGS20 HLM  IGS
## 2304 172800.00000000   900.00000000 60374 0.0000000000000
+   32   G01G02G03G04G05G06G07G08G09G10G11G12G13G14G15G16G17
+        G18G19G20G21G22G23G24G25G26G27G28G29G30G31G32  0  0
+          0  0  0  0  0  0  0  0  0  0  0  0  0  0  0  0  0
+          0  0  0  0  0  0  0  0  0  0  0  0  0  0  0  0  0
+          0  0  0  0  0  0  0  0  0  0  0  0  0  0  0  0  0
++         2  2  2  2  2  2  2  2  2  2  3  2  2  2  2  2  2
++         3  2  2  3  2  2  2  2  2  2  2  2  2  2  2  0  0
++         0  0  0  0  0  0  0  0  0  0  0  0  0  0  0  0  0
++         0  0  0  0  0  0  0  0  0  0  0  0  0  0  0  0  0
++         0  0  0  0  0  0  0  0  0  0  0  0  0  0  0  0  0
%c G  cc GPS ccc cccc cccc cccc cccc ccccc ccccc ccccc ccccc
%c cc cc ccc ccc cccc cccc cccc cccc ccccc ccccc ccccc ccccc
%f  1.2500000  1.025000000  0.00000000000  0.000000000000000
%f  0.0000000  0.000000000  0.00000000000  0.000000000000000
%i    0    0    0    0      0      0      0      0         0
%i    0    0    0    0      0      0      0      0         0
/* RAPID ORBIT COMBINATION FROM WEIGHTED AVERAGE OF:        
/* cod emr esa gfz grg jgx jpl ngs sio usn                  
/* REFERENCED TO IGS TIME (IGST) AND TO WEIGHTED MEAN POLE: 
/* PCV:IGS20      OL/AL:FES2014b NONE     Y  ORB:CMB CLK:CMB
*  2024  3  5 20 15  0.00000000
PG01  12814.877689  -7448.763346  21663.858156    172.475076  7  4  3  86       
PG02  16302.079386   1874.950217  21426.014993   -475.058023  3  6  4  88       
PG03  21382.578766  -9472.011052  12332.919120    234.209247  4  5  5 119       
PG04  24761.468225    670.403199  -9749.340308    307.780069  7  6  5 104       
PG05 -16892.695241  -2447.114283 -20544.061839   -164.287275  7  7  4 113       
PG06  -5457.750964 -25896.476501   1390.812634    380.417326  5  7  6 122       
PG07   7635.266491 -18402.457704 -16831.835168    -77.438026  6  7  7 101       
PG08  26181.741717   5603.197875    966.632463     33.193562  4  5  7 108       
PG09  15747.903069  -9885.698812 -19068.060680    114.427712  4  6  4 103       
PG10  -6277.183227  20666.428614  15443.540110      0.700921  5  5  3  97       
PG11 -11843.168336 -21392.291043 -10405.219548   -597.381007 10 10  8  97       
PG12 -22016.530038   7410.976887  12530.058837   -484.361588  4  8  5  83       
PG13 -21964.720728 -13991.773148  -5995.875781    631.507465  7  7  4 103       
PG14  10045.313925 -21329.981050  12062.573465    342.898200  5  5  7 121       
PG15 -26496.219020  -2940.771809    298.400022    134.553932  4  7  5 104       
PG16  13044.490523   8876.608350 -21750.916004   -347.945303  7  8  6  88       
PG17   2588.651178 -15114.125860  22100.072259    714.753362  4  4  5 108       
PG18  -6991.890884  19325.082676 -16706.637652   -569.541485  6  7  7 120       
PG19  -8196.314330 -16979.284093  18667.273163    449.840682  7  5  4 115       
PG20  -8367.708991 -13967.746561 -20949.333238    385.032532  7  8  5 111       
PG21  17259.102243   8257.480815  19288.366838    132.494244  6  7  5 103       
PG22   3647.207672 -19484.239988  18242.504408     20.630137  6  4  4 110       
PG23 -15838.543139  20755.280755   4313.875944    170.494399  6  6  4 104       
PG24 -17024.513350  -4367.807123  19612.159223   -441.990158  3  6  4  99       
PG25 -20116.257540  16599.715452   3840.218933    490.494829  4  3  7  96       
PG26   4223.146198  17419.187924 -19639.247964    182.960012  6  5  4  94       
PG27  20975.890282  13156.144205 -10460.927383     -9.505325  6  3  5 109       
PG28   4680.320067  25820.864316   4097.535558   -153.833193  6 10  6  87       
PG29 -17969.005797   6876.757143 -18406.119904   -605.542214  8  8  4 106       
PG30    184.870027 -24908.461210  -8690.095891   -423.805237  4  6  7  89       
PG31  10056.077330  23629.830827  -6102.504748   -227.936274  5  8  5  86       
PG32   2062.072828  15966.441337  21362.093217   -614.707650  3  6  4  84       
*  2024  3  5 20 30  0.00000000
PG01  13521.222521  -4981.890457  21964.860715    172.476749  6  3  5 105       
PG02  17080.503921   4030.620451  20503.496511   -475.052415  4  6  5  92       
PG03  20420.360003  -8227.268695  14627.972076    234.230027  4  5  5 119       
PG04  25631.827210   1136.518915  -7116.186169    307.788304  7  6  5 113       
PG05 -15398.722222  -4275.167645 -21400.344957   -164.289170  7  7  4 110       
PG06  -5200.065299 -25639.391600   4286.275505    380.402909  5  6  7 127       
PG07   8424.739109 -16418.570372 -18430.165100    -77.445939  6  7  6  96       
PG08  26094.672480   5830.663127  -1850.767357     33.219327  4  4  7 108       
PG09  17750.983258  -9314.713987 -17532.643034    114.439397  4  7  3 108       
PG10  -7506.155716  21727.915110  13223.136698      0.699996  4  5  2  91       
PG11 -11882.428637 -22456.435692  -7802.542632   -597.391854 10 10  8 116       
PG12 -20972.007400   6173.281139  14751.450074   -484.364880  4  7  5  88       
PG13 -21140.344357 -13873.416870  -8694.578944    631.510587  8  7  4  88       
PG14  11116.562273 -22020.462625   9613.326242    342.907021  5  5  7 120       
PG15 -26396.469988  -3245.605176  -2489.337049    134.557346  4  7  5 112       
PG16  11228.542652  10489.395738 -22008.581766   -347.937638  7  8  6  90       
PG17   4925.555635 -14411.347208  22187.118460    714.752172  4  4  5 103       
PG18  -7663.001706  17418.481264 -18435.034913   -569.548456  6  7  7 129       
PG19  -6059.399202 -16319.429189  19979.036959    449.845541  7  4  4 105       
PG20  -6999.628699 -15891.648921 -20078.440052    385.030944  7  7  5 103       
PG21  17927.346660  10145.451829  17762.762531    132.492438  7  8  6 102       
PG22   5161.961075 -20644.107968  16500.909351     20.624294  5  4  3 109       
PG23 -16220.726972  20852.822668   1438.412359    170.501942  6  6  4 112       
PG24 -17742.176936  -6506.164488  18407.930007   -441.995224  4  6  5 102       
PG25 -19904.000127  15923.180675   6605.712214    490.495751  4  3  7 106       
PG26   2727.491435  18995.679101 -18359.115961    182.956152  6  5  4 105       
PG27  19688.204289  13034.912962 -12862.762458     -9.508016  6  4  5 112       
PG28   4249.465417  25301.108687   6862.697552   -153.845422  5  9  7  90       
PG29 -19826.356960   6145.221820 -16680.832392   -605.541652  8  8  5 117       
PG30    811.150109 -23876.581703 -11183.209433   -423.800601  5  7  6  93       
PG31   9908.526250  24210.316745  -3304.299279   -227.936268  6  8  6  92       
PG32   -307.774168  15453.269543  21818.059270   -614.708925  3  6  5  80       
*  2024  3  5 20 45  0.00000000
PG01  14367.001019  -2549.737796  21875.293166    172.478422  6  3  6 106       
PG02  17925.042428   6030.768302  19244.661325   -475.046947  5  7  5  94       
PG03  19368.459110  -6741.724175  16667.616950    234.250771  4  5  4 120       
PG04  26227.982247   1491.702277  -4361.444696    307.796530  8  6  5 107       
PG05 -13959.526619  -6241.959595 -21894.503709   -164.290028  7  7  4 104       
PG06  -4821.628080 -25090.082374   7107.555278    380.388545  5  6  7 131       
PG07   9365.471191 -14320.310694 -19693.600502    -77.453932  6  7  6 100       
PG08  25709.384855   6016.474575  -4637.169373     33.245108  5  4  7 116       
PG09  19593.318342  -8877.337672 -15697.937775    114.451104  4  7  2 103       
PG10  -8506.878541  22653.308709  10774.148137      0.699125  3  5  2  94       
PG11 -11889.092874 -23227.952430  -5065.834375   -597.402732 10 10  7 113       
PG12 -19826.174197   4709.559362  16713.535848   -484.368241  4  7  5  77       
PG13 -20031.187701 -13707.519078 -11246.629734    631.513768  8  7  4  85       
PG14  11962.120535 -22548.510954   6997.025010    342.915816  5  5  7 128       
PG15 -26002.567530  -3541.889985  -5234.996640    134.560843  5  7  5 109       
PG16   9492.293999  12205.658504 -21899.317734   -347.929860  7  8  6 101       
PG17   7285.780427 -13840.574187  21907.109330    714.751150  4  5  5  98       
PG18  -8493.162593  15383.149294 -19843.860738   -569.555413  6  7  7 124       
PG19  -3761.896609 -15738.126765  20944.625071    449.850279  6  4  4 110       
PG20  -5791.358074 -17779.025679 -18861.489572    385.029416  7  7  5 116       
PG21  18619.547084  11824.900623  15952.486397    132.491419  7  8  6 110       
PG22   6465.519291 -21736.656543  14486.801433     20.618789  5  4  3 118       
PG23 -16392.697118  20712.966548  -1462.094672    170.509557  6  6  4 113       
PG24 -18493.303126  -8461.641257  16880.439917   -442.000251  4  6  5  94       
PG25 -19530.839114  14995.103173   9254.505066    490.496758  4  4  7  92       
PG26   1399.868333  20512.072545 -16762.997877    182.952253  5  5  4 103       
PG27  18143.966538  12939.387450 -15051.217352     -9.510678  6  5  4 115       
PG28   3678.144052  24519.936477   9509.706654   -153.857619  5  9  7  87       
PG29 -21516.040049   5568.180268 -14670.699319   -605.540783  8  8  5  98       
PG30   1577.124177 -22618.943830 -13479.855718   -423.795913  5  7  6  79       
PG31   9685.824783  24492.868556   -447.991795   -227.936480  6  8  6  90       
PG32  -2733.254209  15060.790703  21906.034321   -614.710315  3  6  5  88       
EOF
